{
  "links" : {
    "next" : "https://api.nasa.gov/neo/rest/v1/feed?start_date=2008-08-16&end_date=2008-08-16&detailed=true&api_key=t0TVs3DtDT2H8Oy2Zy8m2eVrNsAVKAexjcZXUckd",
    "prev" : "https://api.nasa.gov/neo/rest/v1/feed?start_date=2008-08-14&end_date=2008-08-14&detailed=true&api_key=t0TVs3DtDT2H8Oy2Zy8m2eVrNsAVKAexjcZXUckd",
    "self" : "https://api.nasa.gov/neo/rest/v1/feed?start_date=2008-08-15&end_date=2008-08-15&detailed=true&api_key=t0TVs3DtDT2H8Oy2Zy8m2eVrNsAVKAexjcZXUckd"
  },
  "element_count" : 9,
  "near_earth_objects" : {
    "2008-08-15" : [ {
      "links" : {
        "self" : "https://api.nasa.gov/neo/rest/v1/neo/2035107?api_key=t0TVs3DtDT2H8Oy2Zy8m2eVrNsAVKAexjcZXUckd"
      },
      "neo_reference_id" : "2035107",
      "name" : "35107 (1991 VH)",
      "nasa_jpl_url" : "http://ssd.jpl.nasa.gov/sbdb.cgi?sstr=2035107",
      "absolute_magnitude_h" : 16.7,
      "estimated_diameter" : {
        "kilometers" : {
          "estimated_diameter_min" : 1.214940408,
          "estimated_diameter_max" : 2.7166893409
        },
        "meters" : {
          "estimated_diameter_min" : 1214.9404079963,
          "estimated_diameter_max" : 2716.6893408911
        },
        "miles" : {
          "estimated_diameter_min" : 0.7549287363,
          "estimated_diameter_max" : 1.6880719724
        },
        "feet" : {
          "estimated_diameter_min" : 3986.0250881707,
          "estimated_diameter_max" : 8913.0230571693
        }
      },
      "is_potentially_hazardous_asteroid" : true,
      "close_approach_data" : [ {
        "close_approach_date" : "2008-08-15",
        "epoch_date_close_approach" : 1218783600000,
        "relative_velocity" : {
          "kilometers_per_second" : "7.8375023945",
          "kilometers_per_hour" : "28215.0086200767",
          "miles_per_hour" : "17531.7091061804"
        },
        "miss_distance" : {
          "astronomical" : "0.0457675287",
          "lunar" : "17.8035678864",
          "kilometers" : "6846724.5",
          "miles" : "4254357.5"
        },
        "orbiting_body" : "Earth"
      } ],
      "orbital_data" : {
        "orbit_id" : "337",
        "orbit_determination_date" : "2017-04-06 09:29:19",
        "orbit_uncertainty" : "0",
        "minimum_orbit_intersection" : ".0260101",
        "jupiter_tisserand_invariant" : "5.473",
        "epoch_osculation" : "2458000.5",
        "eccentricity" : ".1443055351799036",
        "semi_major_axis" : "1.137382468291201",
        "inclination" : "13.91091662440011",
        "ascending_node_longitude" : "139.3648563762292",
        "orbital_period" : "443.055591076174",
        "perihelion_distance" : ".9732518825001999",
        "perihelion_argument" : "206.944459911928",
        "aphelion_distance" : "1.301513054082203",
        "perihelion_time" : "2457818.534866860454",
        "mean_anomaly" : "147.8537891173436",
        "mean_motion" : ".8125391198101497",
        "equinox" : "J2000"
      }
    }, {
      "links" : {
        "self" : "https://api.nasa.gov/neo/rest/v1/neo/2428694?api_key=t0TVs3DtDT2H8Oy2Zy8m2eVrNsAVKAexjcZXUckd"
      },
      "neo_reference_id" : "2428694",
      "name" : "428694 Saule (2008 OS9)",
      "nasa_jpl_url" : "http://ssd.jpl.nasa.gov/sbdb.cgi?sstr=2428694",
      "absolute_magnitude_h" : 19.4,
      "estimated_diameter" : {
        "kilometers" : {
          "estimated_diameter_min" : 0.3503926411,
          "estimated_diameter_max" : 0.7835017643
        },
        "meters" : {
          "estimated_diameter_min" : 350.3926411083,
          "estimated_diameter_max" : 783.5017643338
        },
        "miles" : {
          "estimated_diameter_min" : 0.2177238258,
          "estimated_diameter_max" : 0.4868452748
        },
        "feet" : {
          "estimated_diameter_min" : 1149.5821926537,
          "estimated_diameter_max" : 2570.543928497
        }
      },
      "is_potentially_hazardous_asteroid" : false,
      "close_approach_data" : [ {
        "close_approach_date" : "2008-08-15",
        "epoch_date_close_approach" : 1218783600000,
        "relative_velocity" : {
          "kilometers_per_second" : "21.2035414508",
          "kilometers_per_hour" : "76332.7492230164",
          "miles_per_hour" : "47430.2018713793"
        },
        "miss_distance" : {
          "astronomical" : "0.0598671777",
          "lunar" : "23.2883319855",
          "kilometers" : "8956002",
          "miles" : "5565002"
        },
        "orbiting_body" : "Earth"
      } ],
      "orbital_data" : {
        "orbit_id" : "50",
        "orbit_determination_date" : "2017-04-11 18:55:49",
        "orbit_uncertainty" : "0",
        "minimum_orbit_intersection" : ".0575551",
        "jupiter_tisserand_invariant" : "4.047",
        "epoch_osculation" : "2458000.5",
        "eccentricity" : ".6481883436885546",
        "semi_major_axis" : "1.601752868526499",
        "inclination" : "19.12204554293608",
        "ascending_node_longitude" : "133.5176673858652",
        "orbital_period" : "740.443103603469",
        "perihelion_distance" : ".5635153296779165",
        "perihelion_argument" : "288.2158725297416",
        "aphelion_distance" : "2.639990407375082",
        "perihelion_time" : "2457708.260922764334",
        "mean_anomaly" : "142.0852828432597",
        "mean_motion" : ".4861953582226779",
        "equinox" : "J2000"
      }
    }, {
      "links" : {
        "self" : "https://api.nasa.gov/neo/rest/v1/neo/3314048?api_key=t0TVs3DtDT2H8Oy2Zy8m2eVrNsAVKAexjcZXUckd"
      },
      "neo_reference_id" : "3314048",
      "name" : "(2006 BJ55)",
      "nasa_jpl_url" : "http://ssd.jpl.nasa.gov/sbdb.cgi?sstr=3314048",
      "absolute_magnitude_h" : 24.2,
      "estimated_diameter" : {
        "kilometers" : {
          "estimated_diameter_min" : 0.0384197891,
          "estimated_diameter_max" : 0.0859092601
        },
        "meters" : {
          "estimated_diameter_min" : 38.4197891064,
          "estimated_diameter_max" : 85.9092601232
        },
        "miles" : {
          "estimated_diameter_min" : 0.0238729428,
          "estimated_diameter_max" : 0.0533815229
        },
        "feet" : {
          "estimated_diameter_min" : 126.0491808919,
          "estimated_diameter_max" : 281.8545369825
        }
      },
      "is_potentially_hazardous_asteroid" : false,
      "close_approach_data" : [ {
        "close_approach_date" : "2008-08-15",
        "epoch_date_close_approach" : 1218783600000,
        "relative_velocity" : {
          "kilometers_per_second" : "5.8678899274",
          "kilometers_per_hour" : "21124.4037386435",
          "miles_per_hour" : "13125.8829786032"
        },
        "miss_distance" : {
          "astronomical" : "0.0419076753",
          "lunar" : "16.3020858765",
          "kilometers" : "6269299",
          "miles" : "3895561.75"
        },
        "orbiting_body" : "Earth"
      } ],
      "orbital_data" : {
        "orbit_id" : "10",
        "orbit_determination_date" : "2017-04-06 09:09:14",
        "orbit_uncertainty" : "6",
        "minimum_orbit_intersection" : ".0274085",
        "jupiter_tisserand_invariant" : "5.937",
        "epoch_osculation" : "2458000.5",
        "eccentricity" : ".128312726834268",
        "semi_major_axis" : "1.028346942990704",
        "inclination" : "5.903973907216583",
        "ascending_node_longitude" : "307.4472584067585",
        "orbital_period" : "380.8973216999961",
        "perihelion_distance" : ".8963969426038833",
        "perihelion_argument" : "288.8073597080477",
        "aphelion_distance" : "1.160296943377525",
        "perihelion_time" : "2458047.711185224608",
        "mean_anomaly" : "315.3789808628657",
        "mean_motion" : ".9451366011009777",
        "equinox" : "J2000"
      }
    } ]
  }
}